SENTINEL-6              
1 46984U 20086A   24231.84855417 -.00000025  00000+0  15663-3 0  9992
2 46984  66.0406  81.1236 0007770 269.6440  90.3685 12.80930829174979
